Name,street add,zip,Lat,Lon,Category\
Adrian's Pizza,605 Thompson Run Rd,15237,40.539465,-79.990764,Take Out\
Adrian's Pizza Express,7824 Perry Hwy,15237,40.551219,-80.037362,Take Out\
Allegheny Sandwich Shop,414 Grant St,15219,40.43811,-79.99686,NO Dollar Menu\
Allegheny Sandwich Shoppe #3,440 Ross St,15219,40.438514,-79.99533,NO Dollar Menu\
Amili's Pizzeria,1021 Brownsville Rd,15210,40.406082,-79.991863,Take Out\
Angelia's Pizza,202 Moon Clinton Rd,15108,40.513135,-80.223406,Take Out\
Angelia's Pizza / Chill Frozen Dessserts,410 Penn Lincoln Dr,15126,40.442466,-80.235992,Take Out\
Antney's Ice Cream,1316 Poplar St,15205,40.42747,-80.052435,Breakfast/Drink/Other\
Arby's,1617 Freeport Rd,15065,40.622125,-79.727516,Dollar Menu\
Arby's #8,3974 Wm Penn Hwy,15146,40.437988,-79.772845,Dollar Menu\
Arby's #42,1378 Banksville Rd,15216,40.414684,-80.030651,Dollar Menu\
Arby's #164,3417 Forbes Ave,15213,40.439175,-79.960709,Dollar Menu\
Arby's #836,1140 Washington Pike,15017,40.3679,-80.103172,Dollar Menu\
Arby's #1203,2251 Noblestown Rd,15205,40.428509,-80.0531,Dollar Menu\
Arby's #1414,6192 Steubenville Pike,15136,40.445808,-80.150631,Dollar Menu\
Arby's #1691,5030 Wm Flynn Hwy,15044,40.606809,-79.946719,Dollar Menu\
Arby's #1773,19075 Perry Hwy,16046,40.6225913,-80.0533722,Dollar Menu\
Arby's #1853,3700 Library Rd,15234,40.364992,-80.020333,Dollar Menu\
Arby's #1854,1911 S Braddock Ave,15218,40.422721,-79.885611,Dollar Menu\
Arby's #1858,6105 Saltsburg Rd,15147,40.484692,-79.819176,Dollar Menu\
Arby's #6941,2040 Lebanon Church Rd,15122,40.34781,-79.94861,Dollar Menu\
Arby's #7345,4260 Ohio River Blvd,15202,40.487673,-80.055679,Dollar Menu\
Arby's #7502,1804 Golden Mile Hwy / Rt 286,15239,40.44655,-79.713077,Dollar Menu\
Arby's #7548,450 Clairton Blvd,15236,40.338077,-79.978961,Dollar Menu\
Arby's #7550,4810 McKnight Rd,15237,40.525384,-80.004977,Dollar Menu\
Arby's #7633,5205 Library Rd,15102,40.333904,-80.023611,Dollar Menu\
Arby's #7678,2831 Jacks Run Rd,15131,40.338628,-79.806234,Dollar Menu\
Arby's #8042,9100 University Blvd,15108,40.502499,-80.222638,Dollar Menu\
Arby's #8436,808 Liberty Ave,15222,40.442516,-79.998747,Dollar Menu\
Auntie Anne's,3075 Clairton Blvd / Century III Mall,15123,40.340291,-79.938522,Breakfast/Drink/Other\
Auntie Anne's,309 Monroeville Mall,15146,40.426747,-79.79493,Breakfast/Drink/Other\
Auntie Anne's / Cinnabon, Pgh Intl Airport / Ne-1,15231,40.495309,-80.235291,Breakfast/Drink/Other\
Auntie Anne's #Pa-219,110 Pittsburgh Mills Cir,15084,40.637815,-79.796052,Breakfast/Drink/Other\
Auntie Anne's FC-9,100 Robinson Center Dr,15205,40.454124,-80.161164,Breakfast/Drink/Other\
Auntie Anne's Kiosk,100 Robinson Center Dr,15205,40.454124,-80.161164,Breakfast/Drink/Other\
Auntie Anne's Pa #163,1000 Ross Park Mall Dr,15232,40.544559,-80.008739,Breakfast/Drink/Other\
Auntie Anne's Pretzels,200 Monroeville Mall (Food Court),15146,40.432471,-79.751203,Breakfast/Drink/Other\
Auntie Anne's Pretzels #PA287, Monroville Mall,15146,40.430955,-79.794637,Breakfast/Drink/Other\
Auntie Anne's Pretzels PA 253-- Upper Level,301 South Hills Village Kiosk Upper Level,15241,40.32057,-80.087015,Breakfast/Drink/Other\
Bartram House Bakery,2000 Village Run Rd,15090,40.633331,-80.056371,Breakfast/Drink/Other\
Bartram House Bakery & Cafe,2612 Carson St,15203,40.427093,-79.968159,Breakfast/Drink/Other\
Baskin-Robbins #765,1110 Freeport Rd,15238,40.487618,-79.881926,Breakfast/Drink/Other\
Ben & Jerry's,936 Penn Ave,15222,40.443921,-79.996699,Breakfast/Drink/Other\
Big Kmart - Little Caesars #9438,720 Clairton Blvd,15236,40.326728,-79.945687,Take Out\
Big Shot Bob's,344 Union Ave,15202,40.503691,-80.061846,Take Out\
Big Shot Bob's House of Wings,1534 5th Ave,15108,40.513421,-80.154136,Take Out\
Big Shot Bob's Sandwich Shop,1006 Washington Ave,15106,40.398829,-80.08295,Take Out\
Bishop's Pizza,428 Lebanon Rd,15122,40.370434,-79.928168,Take Out\
Bishop's Pizza,114 Whitaker St,15120,40.401029,-79.887913,Take Out\
Bishop's Pizza,1416 Lincoln Hwy,15137,40.3744542,-79.7962111,Take Out\
Bishop's Pizza #9,1811 Golden Mile Hwy,15239,40.447217,-79.714463,Take Out\
Bishop's Pizza #10,614 Walnut Ave,15025,40.304795,-79.893359,Take Out\
Blaze Pizza,3939 William Penn Hwy,15146,40.43812,-79.77622,Take Out\
Blue Canary Coffee House,300 Mt Lebanon Blvd,15234,40.368736,-80.034172,Breakfast/Drink/Other\
Bob's Sub,215 Smithfield St,15222,40.438148,-80.000204,NO Dollar Menu\
Bob's Sub,2015 Pittsburgh Mills Blvd,15084,40.637815,-79.796052,NO Dollar Menu\
Bob's Sub,1713 Freeport Rd,15065,40.623749,-79.725248,NO Dollar Menu\
Boonda's Hometown Pizza,5622 Homeville Rd Unit B,15122,40.36821,-79.872442,Take Out\
Boston Market #146,3776 Wm Penn Hwy,15146,40.435723,-79.785201,NO Dollar Menu\
Boston Market #266,98 Clairton Blvd,15236,40.338077,-79.978961,NO Dollar Menu\
Boston Market #0270,5200 Baum Blvd,15224,40.455594,-79.941549,NO Dollar Menu\
Boston Market #410,978 Greentree Rd,15220,40.418072,-80.046016,NO Dollar Menu\
Boston Market #3206,300 Davis Blvd,15275,40.495013,-79.958815,NO Dollar Menu\
Bourbon St Cafe,200 Monroeville Mall,15146,40.429183,-79.795459,Breakfast/Drink/Other\
Brighton Hot Dog Shoppe,5990 University Blvd #11,15108,40.521267,-80.219777,NO Dollar Menu\
Brighton Hot Dog Shoppe,2401 Noblestown Rd,15205,40.426856,-80.057269,NO Dollar Menu\
Bruegger's Bagel Bakery,1134 Thorn Run Ext,15108,40.505249,-80.208526,Breakfast/Drink/Other\
Bruegger's Bagel Bakery,422 Beaver St,15143,40.540608,-80.181178,Breakfast/Drink/Other\
Bruegger's Bagel Bakery,1644 Cochran Rd,15220,40.392512,-80.061581,Breakfast/Drink/Other\
Bruegger's Bagel Bakery,5213 Library Rd,15102,40.33414,-80.024069,Breakfast/Drink/Other\
Bruegger's Bagel Bakery,4885 McKnight Rd,15237,40.529616,-80.010025,Breakfast/Drink/Other\
Bruegger's Bagel Bakery,25 Market Pl,15222,40.441141,-80.003093,Breakfast/Drink/Other\
Bruegger's Bagel Bakery,429 4th Ave,15219,40.438516,-79.998355,Breakfast/Drink/Other\
Bruegger's Bagel Bakery,411 7th Ave,15219,40.44289,-79.996284,Breakfast/Drink/Other\
Bruegger's Bagel Bakery,1801 E Carson St,15203,40.428934,-79.9803,Breakfast/Drink/Other\
Bruegger's Bagel Bakery,5217 Clairton Blvd,15236,40.344196,-79.970964,Breakfast/Drink/Other\
Bruegger's Bagel Bakery,3714 Forbes Ave,15213,40.441276,-79.956953,Breakfast/Drink/Other\
Bruegger's Bagel Bakery,806 S Aiken St,15232,40.450725,-79.935724,Breakfast/Drink/Other\
Bruegger's Bagel Bakery,1719 Murray Ave,15217,40.437442,-79.92281,Breakfast/Drink/Other\
Bruegger's Bagel Bakery #064,1720 Washington Rd,15241,40.348144,-80.053825,Breakfast/Drink/Other\
Bruegger's Bagel Bakery #102,531 Grant St,15219,40.440636,-79.99663,Breakfast/Drink/Other\
Bruster's,9600 Perry Hwy,15237,40.581451,-80.037014,Breakfast/Drink/Other\
Bruster's #034,493 Lowries Run Rd,15237,40.533744,-80.049769,Breakfast/Drink/Other\
Bruster's Ice Cream,4937 Wm Flynn Hwy,15044,40.60412,-79.947196,Breakfast/Drink/Other\
Bruster's Ice Cream # 324,4940 Library Rd,15102,40.343815,-80.02743,Breakfast/Drink/Other\
Buon Giorno Cafe,20 Stanwix St,15222,40.43867,-80.005179,Breakfast/Drink/Other\
Buon Giorno Cafe,6 Smithfield St,15222,40.436865,-80.000512,Breakfast/Drink/Other\
Burger King #463,4885 Wm Flynn Hwy,15101,40.601937,-79.947769,Dollar Menu\
Burger King #668,909 Butler St,15223,40.511166,-79.947464,Dollar Menu\
Burger King #670,1002 Emeryville Dr,16046,40.67299,-80.100335,Dollar Menu\
Burger King #671,105 Ohio River Blvd,15143,40.559373,-80.165185,Dollar Menu\
Burger King #2249,1901 Golden Mile Hwy / Route 286,15239,40.452215,-79.712942,Dollar Menu\
Burger King #2546,2799 Freeport Rd,15238,40.538533,-79.833257,Dollar Menu\
Burger King #2679,10955 Perry Hwy,15090,40.6174967,-80.0561118,Dollar Menu\
Burger King #3030,1901 Lincoln Hwy,15137,40.368281,-79.777485,Dollar Menu\
Burger King #3855,2900 Brownsville Rd,15210,40.382367,-79.976914,Dollar Menu\
Burger King #4192,1820 Carson St,15203,40.428448,-79.979541,Dollar Menu\
Burger King #4350,3220 Library Rd,15234,40.36966,-80.011616,Dollar Menu\
Burger King #7351,4490 Broadway Blvd,15146,40.391506,-79.766588,Dollar Menu\
Burger King #11346,5940 University Blvd,15108,40.521857,-80.218024,Dollar Menu\
Burger King #11672,415 Home Dr,15275,40.450283,-80.182053,Dollar Menu\
Burger King #12195,121 Walmart Dr,15137,40.386212,-79.82183,Dollar Menu\
Burger King #12789,5240 Library Rd,15102,40.331439,-80.023107,Dollar Menu\
Burger King # 17292,920 Ohio River Blvd,15202,40.494987,-80.066264,Dollar Menu\
Cafe 4350,4350 Northern Pike,15146,40.4247021,-79.7412095,Breakfast/Drink/Other\
Cafe Du Jour,1107 E Carson St,15203,40.428895,-79.987145,Breakfast/Drink/Other\
Calibrations Cafe,1 Life Way,15205,40.439826,-80.1580566,Breakfast/Drink/Other\
CCAC West Hills Cafe,1000 McKee Rd,15071,40.436961,-80.193237,Breakfast/Drink/Other\
Chan An Restaurant,2013 Wharton St,15203,40.430381,-79.977263,Take Out\
Chan An Restaurants,37 Walsh Rd,15205,40.439312,-80.071078,Take Out\
Charley's Grilled Subs #170,200 Monroeville Mall,15146,40.429183,-79.795459,Take Out\
Charley's Grilled Subs #363,447 Pittsburgh Mills Cir,15084,40.637815,-79.796052,Take Out\
Charley's Grilled Subs #448,1000 Ross Park Mall Dr,15237,40.538969,-80.007711,Take Out\
Charley's Grilled Subs #466,100 Robinson Center Dr,15205,40.454124,-80.161164,Take Out\
Charley's Grilled Subs #472, Pgh Intl Airport / Ac-02c,15231,40.495309,-80.235291,Take Out\
Charley's Grilled Subs #530,120 5th Ave,15222,40.441888,-80.003443,Take Out\
Charley's Philly Steaks #4,3075 Clairton Blvd / Century III Mall / Rm 736,15123,40.340291,-79.938522,Take Out\
Chick-Fil-A, Pgh Int'L Airport / Ac-20a/B,15231,40.495309,-80.235291,NO Dollar Menu\
Chick-Fil-A,121 Costco Dr,15205,40.457857,-80.167892,NO Dollar Menu\
Chick-Fil-A,1000 Ross Park Mall Dr,15237,40.538969,-80.007711,NO Dollar Menu\
Chick-Fil-A,461 Clairton Blvd,15236,40.335106,-79.946515,NO Dollar Menu\
Chick-Fil-A,480 E Waterfront Dr,15120,40.4127,-79.90791,NO Dollar Menu\
Chick-Fil-A #01297,100 Robinson Center Dr,15205,40.454124,-80.161164,NO Dollar Menu\
Chick-Fil-A #1765,1620 Washington Rd,15241,40.351995,-80.051541,NO Dollar Menu\
Chick-Fil-A #2091,4040 Wm Penn Hwy / Miracle Mile,15146,40.437773,-79.764981,NO Dollar Menu\
China House,2001 Lincoln Way,15131,40.337364,-79.805396,Take Out\
China House II,7400 Church St,15218,40.422307,-79.889321,Take Out\
China Max,100 Robinson Center Dr,15205,40.454124,-80.161164,Take Out\
China Max,301 South Hills Village - Fc2,15241,40.32057,-80.087015,Take Out\
China Palace,4059 Wm Penn Hwy,15146,40.440293,-79.769793,Take Out\
China Wok,1202 5th Ave,15219,40.438484,-79.988796,Take Out\
China Wok Brentwood,4060 Brownsville Rd,15227,40.366385,-79.981375,Take Out\
Chipotle Mexican Grill #863,3619 Forbes Ave,15213,40.441145,-79.958028,NO Dollar Menu\
Chipotle Mexican Grill #877,310 McHolme Dr,15275,40.448506,-80.174236,NO Dollar Menu\
Chipotle Mexican Grill #1089,509 Clairton Blvd,15236,40.33329,-79.946259,NO Dollar Menu\
Chipotle Mexican Grill #1146,4800 Baum Blvd,15213,40.454233,-79.947422,NO Dollar Menu\
Chipotle Mexican Grill #1264,4861 McKnight Rd,15237,40.529066,-80.008721,NO Dollar Menu\
Chipotle Mexican Grill #1533,211 Forbes Av,15222,40.440614,-80.001898,NO Dollar Menu\
Chipotle Mexican Grill #1803,1614 Cochran Rd,15220,40.391701,-80.059861,NO Dollar Menu\
Chipotle Mexican Grill #1896,1720 Washington Rd,15241,40.348144,-80.053825,NO Dollar Menu\
Chipotle Mexican Grill #2126,5986 Centre Av,15206,40.463732,-79.920677,NO Dollar Menu\
Chipotle Mexican Grill #2148,11359 Perry Highway,15090,40.623458,-80.053834,NO Dollar Menu\
Chipotle Mexican Grill #2268,8870 Covenant Dr,15237,40.568912,-80.021814,NO Dollar Menu\
Chipotle Mexican Grill #2347,3009 Washington Pike,15017,40.35433,-80.114791,NO Dollar Menu\
Chipotle Mexican Grill #2347,4137 William Penn Hwy,15146,40.439155,-79.766931,NO Dollar Menu\
Chipotle Mexican Grill #2655,1027 Freeport Rd,15238,40.48807,-79.885568,NO Dollar Menu\
Coffee Tree Roasters @ Duquesne Univ. Law,900 Locust St,15282,40.436613,-79.991948,Breakfast/Drink/Other\
Cold Stone Creamery,6509 Robinson Center Dr,15205,40.455223,-80.162075,Breakfast/Drink/Other\
Cold Stone Creamery #21109,5800 Forbes Ave,15217,40.43786,-79.922796,Breakfast/Drink/Other\
Commonplace Coffee,1501 Buena Vista Rd,15212,40.457034,-80.014819,Breakfast/Drink/Other\
Cool Beans Coffee Co,1 Allegheny Center Mall,15212,40.453316,-80.004347,Breakfast/Drink/Other\
Crazy Mocha,531 Beaver St,15143,40.539663,-80.178962,Breakfast/Drink/Other\
Crazy Mocha,2 North Ave,15212,40.455617,-80.006868,Breakfast/Drink/Other\
Crazy Mocha,4 Gateway Center,15222,40.440537,-80.005455,Breakfast/Drink/Other\
Crazy Mocha,801 Liberty Ave,15222,40.442949,-79.998918,Breakfast/Drink/Other\
Crazy Mocha,420 Ft Duquesne Blvd,15222,40.447526,-79.993398,Breakfast/Drink/Other\
Crazy Mocha,2100 Murray Ave,15217,40.433523,-79.923269,Breakfast/Drink/Other\
Crazy Mocha - Liberty Center,1001 Liberty Ave,15222,40.444209,-79.994669,Breakfast/Drink/Other\
Crazy Mocha (Grant St T Station),500 Grant St,15219,40.439678,-79.995932,Breakfast/Drink/Other\
Crazy Mocha / One Mellon Center,500 Grant St,15219,40.439678,-79.995932,Breakfast/Drink/Other\
Crazy Mocha #29,2775 Mosside Blvd,15146,40.436464,-79.759886,Breakfast/Drink/Other\
Crazy Mocha #30,5 Station Sq Dr,15219,40.430999,-80.00162,Breakfast/Drink/Other\
Crazy Mocha #38,309 Smithfield St,15222,40.438508,-79.999956,Breakfast/Drink/Other\
Crazy Mocha Coffee,429 Forbes Ave,15219,40.439152,-79.997854,Breakfast/Drink/Other\
Crazy Mocha Coffee #39,2729 Carson St,15203,40.426798,-79.96651,Breakfast/Drink/Other\
Crazy Mocha Coffee Co,1 PPG Place,15222,40.439998,-80.003795,Breakfast/Drink/Other\
Crazy Mocha Coffee Co,225 Ross St,15219,40.437,-79.997091,Breakfast/Drink/Other\
Crazy Mocha Coffee Co,207 Oakland Ave,15213,40.441362,-79.956696,Breakfast/Drink/Other\
Crazy Mocha Coffee Co,4525 Liberty Ave,15224,40.462925,-79.950817,Breakfast/Drink/Other\
Crazy Mocha Coffee Co,4400 Forbes Ave,15213,40.442645,-79.950559,Breakfast/Drink/Other\
Crazy Mocha Coffee Co,5830 Ellsworth Ave,15232,40.456294,-79.930169,Breakfast/Drink/Other\
Crazy Mocha Coffee Co #31,5607 Baum Blvd,15232,40.4580616,-79.9353176,Breakfast/Drink/Other\
Crazy Mocha Coffee Company,4030 Butler St,15201,40.46926,-79.961316,Breakfast/Drink/Other\
Crazy Mocha Coffee Company,9104 Babcock Blvd,15237,40.5731154,-80.013686,Breakfast/Drink/Other\
Dairy Queen,4276 Ohio River Blvd,15202,40.48785,-80.056054,Dollar Menu\
Dairy Queen,3002 Babcock Blvd,15237,40.514473,-80.005981,Dollar Menu\
Dairy Queen,1223 E Carson Street,15203,40.428966,-79.985476,Dollar Menu\
Dairy Queen,1120 Lincoln Hwy,15137,40.3774004,-79.8020845,Dollar Menu\
Dairy Queen / Orange Julius #42442,268 Settlers Ridge Center Dr,15205,40.440641,-80.149132,Dollar Menu\
Dairy Queen & Orange Julius,100 Robinson Center Dr,15205,40.454124,-80.161164,Dollar Menu\
Dairy Queen #13590,4846 Library Rd,15102,40.346429,-80.027633,Dollar Menu\
Dairy Queen #13613,4237 Verona Rd,15147,40.466405,-79.865185,Dollar Menu\
Dairy Queen #13614,400 Lebanon Rd,15122,40.371391,-79.927532,Dollar Menu\
Dairy Queen Brazier #13599,1613 Freeport Rd,15065,40.621901,-79.727936,Dollar Menu\
Dairy Queen Grill & Chill #13605,2795 Clairton Blvd,15227,40.376066,-79.969628,Dollar Menu\
Dairy Queen Of Coraopolis,507 5th Ave,15108,40.521854,-80.17477,Dollar Menu\
Dairy Queen Of Greentree,2331 Noblestown Rd,15205,40.427662,-80.053643,Dollar Menu\
Dairy Queen Of Northern Pike,4251 Northern Pike,15146,40.434128,-79.756057,Dollar Menu\
Dairy Queen Of Perrysville,1039 Perry Hwy,15237,40.541666,-80.036216,Dollar Menu\
Dairy Queen of Scott,1000 Washington Ave,15106,40.398392,-80.08349,Dollar Menu\
Dairy Queen Of White Oak,1990 Lincoln Way,15131,40.337485,-79.809543,Dollar Menu\
Dairy Queen Orange Julius,1000 Ross Park Mall Dr,15237,40.538969,-80.007711,Dollar Menu\
Dairy Queen Orange Julius #41315,301 Hills Village Fc#7,15241,40.342623,-80.05617,Dollar Menu\
Danny's Pizza,4851 Clairton Blvd,15236,40.350007,-79.976336,Take Out\
Dannys Parkview Pizza,5159 Library Rd,15102,40.335214,-80.022875,Take Out\
DiBella's Old Fashioned Submarines,9030 St Simon Way,15237,40.569194,-80.024251,Take Out\
DiBellas Old Fashioned Submarines,6501 Steubenville Pike,15205,40.448034,-80.158727,Take Out\
DiBellas Old Fashioned Submarines,16 Market Pl,15222,40.440746,-80.001796,Take Out\
Domino's #9059,300 6th Ave,15222,40.441932,-80.001828,Take Out\
Domino's Pizza,1001 Carson St,15203,40.428923,-79.988402,Take Out\
Domino's Pizza,4848 William Flynn Hwy,15101,40.571191,-79.952845,Take Out\
Domino's Pizza #3275,3300 Saw Mill Run Blvd,15227,40.375278,-79.983706,Take Out\
Domino's Pizza #4709,2600 Ardmore Blvd,15221,40.413481,-79.84579,Take Out\
Domino's Pizza #4710,119 N Sheridan Ave,15206,40.461722,-79.923425,Take Out\
Domino's Pizza #9073,201 3rd St,15034,40.349548,-79.891425,Take Out\
Domino's Pizza #9074,1019 West View Park Dr,15229,40.51662,-80.035139,Take Out\
Domino's Pizza #9077,5816 Library Rd,15102,40.310089,-80.033478,Take Out\
Domino's Pizza #9082,1300 Brodhead Rd,15108,40.535015,-80.229455,Take Out\
Domino's Pizza #9087,11822 Frankstown Rd,15235,40.468905,-79.823594,Take Out\
Domino's Pizza #9130,4305 Northern Pike,15146,40.434006,-79.75319,Take Out\
Donut Connection,2414 Brownsville Rd,15210,40.386682,-79.982225,Breakfast/Drink/Other\
Donut Connection,1709 Eden Park Blvd,15132,40.347201,-79.831322,Breakfast/Drink/Other\
Donut Connection,7315 Saltsburg Rd,15235,40.477611,-79.787283,Breakfast/Drink/Other\
Donut Connection,2328 Freeport Rd,15065,40.630687,-79.716618,Breakfast/Drink/Other\
Donut Connection / Kaleidoscoops,5004 William Flynn Hwy,15044,40.631549,-79.952845,Breakfast/Drink/Other\
DQ Grill & Chill,2525 Monroeville Blvd,15146,40.432471,-79.751203,Dollar Menu\
DQ Orange Julius,200 Monroeville Mall Dr,15146,40.429183,-79.795459,Breakfast/Drink/Other\
Dunkin Donuts,553 Carnot Rd,15108,40.516458,-80.220609,Breakfast/Drink/Other\
Dunkin Donuts,1541 Washington Rd,15228,40.355509,-80.049809,Breakfast/Drink/Other\
Dunkin Donuts,411 Smithfield St,15222,40.439106,-79.99952,Breakfast/Drink/Other\
Dunkin Donuts,3200 Saw Mill Run Blvd,15227,40.376434,-79.984154,Breakfast/Drink/Other\
Dunkin Donuts,11175 Perry Hwy,15090,40.6204827,-80.0552996,Breakfast/Drink/Other\
Dunkin Donuts / Squirrel Hill,5889 Forbes Ave,15217,40.438267,-79.919646,Breakfast/Drink/Other\
Dunkin Donuts #346772,28 Market Sq,15222,40.440968,-80.003066,Breakfast/Drink/Other\
Dunkin Donuts #347328,344 Rodi Rd,15235,40.458241,-79.823727,Breakfast/Drink/Other\
Dunkin Donuts #347605,301 10th Ave,15084,40.605405,-79.756437,Breakfast/Drink/Other\
Dunkin Donuts #348440,4578 Browns Hill Rd,15217,40.416036,-79.924733,Breakfast/Drink/Other\
Dunkin Donuts #348700,3907 Forbes Ave,15213,40.442213,-79.956375,Breakfast/Drink/Other\
Dunkin Donuts #348824,911 Butler St,15223,40.511493,-79.948265,Breakfast/Drink/Other\
Dunkin Donuts #348825,45 Foster Ave,15205,40.439536,-80.069355,Breakfast/Drink/Other\
Dunkin Donuts #348993,601 Grant St,15219,40.441093,-79.996009,Breakfast/Drink/Other\
Dunkin Donuts #349047,800 West View Park Dr,15229,40.517833,-80.031722,Breakfast/Drink/Other\
Dunkin Donuts #349049,360 Curry Hollow Rd,15236,40.336754,-79.977231,Breakfast/Drink/Other\
Dunkin Donuts #349884,2134 Brownsville Rd,15210,40.391804,-79.98738,Breakfast/Drink/Other\
Dunkin Donuts #350871,2525 5th Ave,15132,40.356166,-79.834442,Breakfast/Drink/Other\
Dunkin Donuts #352224,2725 Freeport Rd,15238,40.538421,-79.833921,Breakfast/Drink/Other\
Dunkin Donuts #352225,1031 Paxton Dr,15102,40.336689,-80.023596,Breakfast/Drink/Other\
Dunkin Donuts #353396,1098 Washington Pi,15017,40.366665,-80.105453,Breakfast/Drink/Other\
Dunkin Donuts #354675,145 McMurray Rd,15241,40.326016,-80.065199,Breakfast/Drink/Other\
Dunkin' Donuts / Baskin-Robbins,1121 Lincoln Hwy,15137,40.449337,-80.199547,Breakfast/Drink/Other\
Dunkin' Donuts #348529,2961 W Liberty Ave,15216,40.393828,-80.035199,Breakfast/Drink/Other\
Einstein Bros Bagels @ Koppers,436 7th Ave,15219,40.442111,-79.995554,Breakfast/Drink/Other\
Einstein Bros Bagels #4054,979 Greentree Rd,15220,40.418469,-80.045429,Breakfast/Drink/Other\
Einstein Bros Bagels #4055,4910 Baum Blvd,15213,40.454553,-79.946117,Breakfast/Drink/Other\
Einstein Bros Bagels #4057,410 Market St / 3 PPG Place,15222,40.4401,-80.002703,Breakfast/Drink/Other\
Elements Cafe,6425 Penn Ave,15206,40.457165,-79.916834,Breakfast/Drink/Other\
Famous Wok,445 Pittsburgh Mills Cir,15084,40.637815,-79.796052,Take Out\
Fellini's Pizzeria,1231 Rt 51,15025,40.310512,-79.937441,Take Out\
Fellini's Pizzeria,6028 Saltsburg Rd,15147,40.48395,-79.820252,Take Out\
Fellini's Pizzeria,1624 Lincoln Way,15131,40.346983,-79.817164,Take Out\
Fellini's Pizzeria,4415 Old Wm Penn Hwy,15146,40.44612,-79.763587,Take Out\
Firehouse Subs,320 McHolme Dr,15275,40.448493,-80.174259,Take Out\
Five Guys #1208,1000 Ross Park Mall Dr,15237,40.538969,-80.007711,NO Dollar Menu\
Five Guys Burgers & Fries,324 McHolme Dr,15275,40.44849,-80.174263,NO Dollar Menu\
Five Guys Burgers & Fries,117 S Bouquet St,15213,40.442269,-79.956672,NO Dollar Menu\
Five Guys Burgers & Fries,1029 Freeport Rd,15238,40.488266,-79.885518,NO Dollar Menu\
Five Guys Burgers & Fries,2030 Pittsburgh Mills Blvd,15084,40.637815,-79.796052,NO Dollar Menu\
Five Guys Burgers & Fries,3845 Northern Pike,15146,40.438694,-79.77763,NO Dollar Menu\
Five Guys Burgers & Fries #1665,3 PPG Place,15222,40.4401,-80.002703,NO Dollar Menu\
Fortune Star Buffet,591 Clairton Blvd,15236,40.33322,-79.946238,Take Out\
Fortune Star Buffet & Grill,1840 Union Ave,15065,40.624687,-79.721774,Take Out\
Fox's Pizza,659 Woodward Ave,15136,40.472714,-80.072727,Take Out\
Fox's Pizza,6 Bailey Ave,15211,40.42685,-80.005307,Take Out\
Fox's Pizza,1746 William Flynn Hwy,15116,40.525393,-79.94725,Take Out\
Fox's Pizza,908 Little Deer Creek Valley Rd,15076,40.60823,-79.833146,Take Out\
Fox's Pizza,104 Church St,15145,40.405193,-79.826158,Take Out\
Fox's Pizza,4400 Old William Penn Hwy,15146,40.445241,-79.764845,Take Out\
Fox's Pizza Brookline,902 Brookline Blvd,15226,40.39006,-80.014366,Take Out\
Fox's Pizza Den,998 Brodhead Rd,15108,40.524248,-80.223868,Take Out\
Fox's Pizza Den,1100B Lincoln Hwy,15137,40.449407,-80.199564,Take Out\
Fox's Pizza Den,6091 Steubenville Pike,15136,40.443926,-80.146397,Take Out\
Fox's Pizza Den,1500 Radford Rd,15227,40.364247,-79.96717,Take Out\
Fox's Pizza Den,5700 Homeville Rd,15122,40.366344,-79.871442,Take Out\
Fox's Pizza Den,200 Swiss Lane,15037,40.28057,-79.835529,Take Out\
Fox's Pizza Den,710 Broadway Ave,15140,40.402315,-79.774875,Take Out\
Fox's Pizza Den,407 6th Ave,15084,40.603279,-79.752064,Take Out\
Fox's Pizza Den Bridgeville,3181 Washington Pike,15017,40.344098,-80.115051,Take Out\
Fox's Pizza Den of Oakmont,314 Allegheny River Blvd,15139,40.522838,-79.832475,Take Out\
Fox's Pizza Den Of Penn Hills,12244 Frankstown Rd,15235,40.472297,-79.819033,Take Out\
Fox's Pizza Den of Plum,2374 Golden Mile Hwy / Rt 286,15239,40.462782,-79.704641,Take Out\
Fox's Pizza-Carnegie,221 2nd Ave,15106,40.403277,-80.089572,Take Out\
Fu Lai,525 Penn Ave,15222,40.442861,-80.003113,Take Out\
Gateway Clipper Cafe,224 Station Square Dr,15219,40.433634,-80.004835,Breakfast/Drink/Other\
Gloria Jean's Coffees, Monroville Mall / Space A-9,15146,40.430526,-79.792457,Breakfast/Drink/Other\
Graeter's Ice Cream,10610 Perry Hwy,15090,40.611054,-80.053876,Breakfast/Drink/Other\
Grandslam Pizza,417 Old Abers Creek Rd,15239,40.465935,-79.705384,Take Out\
Grandslam Pizza #2,4376 Old Wm Penn Hwy,15146,40.443434,-79.768864,Take Out\
Green Beans Coffee, Pgh Intl Airport / Ne-3a,15231,40.495309,-80.235291,Breakfast/Drink/Other\
Green Beans Coffee, Pgh Intl Airport / Se-9c,15231,40.495309,-80.235291,Breakfast/Drink/Other\
Green Leaf's & Bananas,301 South Hill Village - Fc-5,15241,40.342924,-80.055169,Breakfast/Drink/Other\
Handel's Ice Cream,2240 Lebanon Church Rd,15122,40.347833,-79.942427,Breakfast/Drink/Other\
Handel's Old Fashioned Ice Cream,9020 St Simon Way,15237,40.569025,-80.024991,Breakfast/Drink/Other\
Hardee's,1201 North Ave,15209,40.493092,-79.975603,Dollar Menu\
Hook Fish & Chicken,1221 Federal St,15212,40.456511,-80.006998,Take Out\
Hook Fish & Chicken,10 Ormsby Ave,15210,40.412578,-79.987728,Take Out\
Hook Fish & Chicken,6960 5th Ave,15208,40.458381,-79.907878,Take Out\
Hook Fish & Chicken,11644 Frankstown Rd,15235,40.465214,-79.827207,Take Out\
Hunan Wok,2158 Brownsville Rd,15210,40.391956,-79.987408,Take Out\
Hunan Wok,1822 Homeville Rd,15122,40.373678,-79.873734,Take Out\
Hunan Wok II,500 Pine Hollow Rd,15136,40.473857,-80.096769,Take Out\
Italian Village Pizza,5037 2nd Ave,15207,40.388293,-80.04073,Take Out\
Italian Village Pizza,325 Mt Lebanon Blvd,15234,40.369495,-80.03507,Take Out\
Italian Village Pizza,5255 Library Rd,15102,40.332479,-80.02187,Take Out\
Italian Village Pizza,4885 McKnight Rd,15237,40.529616,-80.010025,Take Out\
Italian Village Pizza,600 Grant St,15219,40.44129,-79.994574,Take Out\
Italian Village Pizza,2951 Ridge Rd,15129,40.289954,-79.981844,Take Out\
Italian Village Pizza,2713 Brownsville Rd,15227,40.384129,-79.977417,Take Out\
Italian Village Pizza,5235 Clairton Blvd,15227,40.343866,-79.970337,Take Out\
Italian Village Pizza,3075 Clairton Blvd / Century III Mall / Rm 696,15123,40.340291,-79.938522,Take Out\
Italian Village Pizza,5886 Forbes Ave,15217,40.437907,-79.919555,Take Out\
Italian Village Pizza,2615 Main St,15120,40.392548,-79.900057,Take Out\
Italian Village Pizza,412 Richland Ave,15034,40.350162,-79.893841,Take Out\
Italian Village Pizza,308 Scenery Dr,15037,40.279728,-79.836543,Take Out\
Italian Village Pizza / Shake Shop,580 Old Clairton Rd,15236,40.325847,-79.956933,Take Out\
J & M Deli II,226A Center Rd,15146,40.440441,-79.767095,Take Out\
Jake & Sons Pizzeria,2147 Ardmore Blvd,15221,40.418191,-79.848548,Take Out\
Jersey Mike's Subs,1155 Washington Pike,15017,40.369288,-80.102255,Take Out\
Jersey Mike's Subs,7390 McKnight Rd,15237,40.539696,-80.011567,Take Out\
Jet's Pizza #399,1810 Dormont Ave,15216,40.398488,-80.044325,Take Out\
Jimmy John's,1935 Settlers Ridge Center Dr,15205,40.440641,-80.149132,NO Dollar Menu\
Jimmy John's,12061 Perry Highway,15090,40.631579,-80.060278,NO Dollar Menu\
Jimmy John's,1717 Carson St,15203,40.429081,-79.981256,NO Dollar Menu\
Jimmy John's,6425 Penn Ave,15206,40.457165,-79.916834,NO Dollar Menu\
Jimmy John's #2682,401 Home Dr,15275,40.450116,-80.182687,NO Dollar Menu\
Jimmy John's #2824,4840 McKnight Rd,15237,40.52794,-80.006138,NO Dollar Menu\
Jimmy John's #2865,5833 Forbes Ave,15217,40.438259,-79.921714,NO Dollar Menu\
Jimmy John's Gourmet Sandwiches,501 Grant St,15219,40.439936,-79.997031,NO Dollar Menu\
Jimmy John's Gourmet Sandwiches #357,506 Liberty Ave,15222,40.44139,-80.003253,NO Dollar Menu\
Jimmy John's Sandwich Shop,3444 Forbes Ave,15213,40.439218,-79.959718,NO Dollar Menu\
Joe's Water Ice,7179 Saltsburg Rd,15235,40.476329,-79.788837,Breakfast/Drink/Other\
Kentucky Fried Chicken #15,4673 Wm Flynn Hwy,15101,40.592374,-79.948364,Dollar Menu\
Kentucky Fried Chicken #50,6901 University Blvd,15108,40.516946,-80.220528,Dollar Menu\
Kentucky Fried Chicken #51,5130 Clairton Blvd,15236,40.345198,-79.973415,Dollar Menu\
Kentucky Fried Chicken #52,5153 Library Rd,15102,40.336128,-80.024005,Dollar Menu\
Kentucky Fried Chicken #53,1100 Brownsville Rd,15210,40.404949,-79.990887,Dollar Menu\
Kentucky Fried Chicken #55,222 W 8th Av,15120,40.404114,-79.91447,Dollar Menu\
Kentucky Fried Chicken #58,640 Long Run Rd,15132,40.323214,-79.832692,Dollar Menu\
Kentucky Fried Chicken #59,4306 Ohio River Blvd,15202,40.497453,-80.060344,Dollar Menu\
Kentucky Fried Chicken #61,1 Landings Dr,15238,40.539523,-79.829099,Dollar Menu\
Kentucky Fried Chicken #65,804 West View Park Dr,15229,40.517413,-80.032686,Dollar Menu\
Kentucky Fried Chicken #66,278 Yost Blvd,15221,40.412997,-79.856682,Dollar Menu\
Kentucky Fried Chicken #68,3770 Wm Penn Hwy,15146,40.435572,-79.785975,Dollar Menu\
Kentucky Fried Chicken #69,4915 Baum Blvd,15213,40.454945,-79.946229,Dollar Menu\
Kentucky Fried Chicken #73,210 Rodi Rd,15235,40.463395,-79.824429,Dollar Menu\
Kentucky Fried Chicken #74,509 Penn Ave,15221,40.444588,-79.886605,Dollar Menu\
KFC / Taco Bell #63,9797 McKnight Rd,15237,40.584923,-80.037115,Dollar Menu\
KFC / Taco Bell #64,6190 Steubenville Pike,15136,40.445558,-80.150142,Dollar Menu\
La Nova Pizzeria,1100 Canal St,15215,40.495206,-79.930962,Take Out\
La Nova Pizzeria,835 Pittsburgh St,15144,40.54146,-79.778639,Take Out\
La Prima Espresso,205 21st St,15222,40.451643,-79.982805,Breakfast/Drink/Other\
La Prima Espresso Co,100 South Commons,15212,40.451062,-80.005186,Breakfast/Drink/Other\
Little Caesars,809 West View Park Dr,15229,40.516906,-80.03279,Take Out\
Little Caesars,5430 Centre Ave,15232,40.455893,-79.937342,Take Out\
Little Caesars,1800 Golden Mile Hwy,15239,40.451665,-79.713148,Take Out\
Little Caesars #143,2973 Liberty Ave,15216,40.393583,-80.035577,Take Out\
Little Caesars #154,4960 William Flynn Hwy,15101,40.571191,-79.952845,Take Out\
Little Caesars #156,1309 Pittsburgh St,15024,40.541213,-79.801953,Take Out\
Little Caesars Pizza #135,1880 Heights Plz,15065,40.623968,-79.722549,Take Out\
Little Caesars Pizza #137,1160 Washington Ave,15106,40.397454,-80.085297,Take Out\
Little Caesars Pizza #138,1985 Lincoln Way,15131,40.338384,-79.806711,Take Out\
Little Caesars Pizza #141,1742 Greensburg Ave,15137,40.387254,-79.821466,Take Out\
Little Caesars Pizza #145, Caste Village Shopping Ctr #140,15236,40.338077,-79.978961,Take Out\
Little Caesars Pizza #148,250 Mt Lebanon Blvd,15234,40.36799,-80.036804,Take Out\
Little Caesars/K Cafe #3141,1025 Washington Pike,15017,40.367163,-80.110119,Take Out\
Long John Silvers,2100 Washington Ave,15106,40.393656,-80.087601,Dollar Menu\
Long John Silvers,300 Rodi Rd,15235,40.460868,-79.824476,Dollar Menu\
Long John Silvers / A&W,2220 Lebanon Church Rd,15122,40.348366,-79.944155,Dollar Menu\
Long John Silvers / A&W,201 Hoffman Blvd,15110,40.383808,-79.863501,Dollar Menu\
Mama Pepino's Pizza,607 William Marks Dr,15120,40.409314,-79.898694,Take Out\
Mama Pepino's Pizza,2417 O'Neil Blvd,15131,40.351751,-79.827321,Take Out\
Mama Pepino's Pizza Eleven,210 Plum St,15037,40.27199,-79.887234,Take Out\
Mamma Lucia,11978 Perry Hwy #408-410,15090,40.632628,-80.058459,Take Out\
Mandy's Pizza & More,512 Perry Hwy,15229,40.521946,-80.033967,Take Out\
Mayorga Coffee, Pgh Intl Airport / Ac-19,15231,40.495309,-80.235291,Breakfast/Drink/Other\
McDonald's,300 Market Place Dr,15071,40.440927,-80.239338,Dollar Menu\
McDonald's,1 Poplar St,15205,40.427405,-80.053359,Dollar Menu\
McDonald's,801 Allegheny Ave,15233,40.450829,-80.019008,Dollar Menu\
McDonald's,500 Liberty Ave,15222,40.441259,-80.003371,Dollar Menu\
McDonald's,505 Smithfield St,15219,40.440282,-79.998526,Dollar Menu\
McDonald's,1630 Penn Ave,15222,40.449305,-79.986305,Dollar Menu\
McDonald's,4214 Brownsville Rd,15227,40.364607,-79.983837,Dollar Menu\
McDonald's,2251 Century Dr / Century Square Mall,15122,40.343726,-79.949066,Dollar Menu\
McDonald's,2090 Lebanon Church Rd,15122,40.34791,-79.945296,Dollar Menu\
McDonald's,7277 Saltsburg Rd,15235,40.477187,-79.788077,Dollar Menu\
McDonald's,1865 New Texas Rd,15239,40.450647,-79.714235,Dollar Menu\
McDonald's,430 Penn Ave,15221,40.444634,-79.888667,Dollar Menu\
McDonald's,505 Lincoln Hwy,15137,40.384263,-79.824247,Dollar Menu\
McDonald's / Moon Twp,825 Beaver Grade Rd,15108,40.517655,-80.216189,Dollar Menu\
McDonald's #1,4849 McKnight Rd,15237,40.528587,-80.008312,Dollar Menu\
McDonald's #2,7702 McKnight Rd,15237,40.54634,-80.016405,Dollar Menu\
McDonald's #428,11591 Frankstown Rd,15235,40.465208,-79.828907,Dollar Menu\
McDonald's #442,5261 Library Rd,15102,40.331889,-80.022381,Dollar Menu\
McDonald's #714,10529 Perry Hwy,15090,40.610159,-80.054045,Dollar Menu\
McDonald's #1102,225 Mt Lebanon Blvd,15234,40.368422,-80.038114,Dollar Menu\
McDonald's #1450,608 Wood St,15222,40.442292,-79.998945,Dollar Menu\
McDonald's #1741,3760 Wm Penn Hwy,15146,40.435384,-79.78689,Dollar Menu\
McDonald's #1862,3708 Forbes Ave,15213,40.441141,-79.957148,Dollar Menu\
McDonald's #2492,2001 Freeport Rd,15065,40.626402,-79.722173,Dollar Menu\
McDonald's #3698,2925 Freeport Rd,15238,40.53915,-79.830099,Dollar Menu\
McDonald's #4121,4317 Northern Pike,15146,40.43448,-79.751788,Dollar Menu\
McDonald's #4647,101 Hoffman Blvd,15110,40.384217,-79.863283,Dollar Menu\
McDonald's #4817,148 N Euclid St,15206,40.462513,-79.92778,Dollar Menu\
McDonald's #4939,4557 Ohio River Blvd,15202,40.492146,-80.06218,Dollar Menu\
McDonald's #5441,2100 Washington Pike,15106,40.387563,-80.093341,Dollar Menu\
McDonald's #6373,4235 Walnut St,15132,40.320953,-79.835736,Dollar Menu\
McDonald's #6822,3023 Washington Pike,15017,40.353717,-80.114547,Dollar Menu\
McDonald's #7450,2518 Liberty Ave,15226,40.398834,-80.026459,Dollar Menu\
McDonald's #7506,971 William Flynn Highway,15116,40.53173,-79.957531,Dollar Menu\
McDonald's #7683,6380 Steubenville Pike,15205,40.448305,-80.155564,Dollar Menu\
McDonald's #7705,82 Fort Couch Rd,15241,40.338071,-80.050784,Dollar Menu\
McDonald's #10260,6361 Penn Ave,15206,40.458803,-79.918483,Dollar Menu\
McDonald's #12151,363 Perry Highway,15229,40.517569,-80.029306,Dollar Menu\
McDonald's #12182, Pgh Intl Airport / Ac-02e,15231,40.495309,-80.235291,Dollar Menu\
McDonald's #12183, Pgh Intl Airport / Se-09a,15231,40.495309,-80.235291,Dollar Menu\
McDonald's #12415,70 Allegheny River Blvd,15147,40.498933,-79.818468,Dollar Menu\
McDonald's #18474,600 Pine Hollow Rd,15136,40.473945,-80.09571,Dollar Menu\
McDonald's #22492,549 Clairton Blvd,15236,40.333256,-79.946249,Dollar Menu\
McDonald's #24334,400 E Waterfront Dr,15120,40.412066,-79.909936,Dollar Menu\
McDonald's #24444,200 Walmart Dr,15044,40.621501,-79.944094,Dollar Menu\
McDonald's #26447,4618 Wm Flynn Hwy,15044,40.626088,-79.941799,Dollar Menu\
McDonald's #27444,1010 4th Ave,15108,40.517838,-80.163126,Dollar Menu\
McDonald's #31563,2010 Value Dr,15084,40.611784,-79.772092,Dollar Menu\
McDonald's #33806,907 Freeport Rd,15238,40.486872,-79.88952,Dollar Menu\
McDonald's Of Warrendale,19055 Perry Hwy,16046,40.6718121,-80.0985583,Dollar Menu\
Mineo's Pizza,2350 Noblestown Rd,15205,40.42746,-80.05546,Take Out\
Mineo's Pizza,713 A Washington Rd,15228,40.379826,-80.04461,Take Out\
Mitch's Barbeque,16070 Perry Hwy,15090,40.632349,-80.058797,Take Out\
Mm Mm Pizza,2971 South Park Road,15102,40.327167,-80.041842,Take Out\
Mm! Mm! Pizza,5208 Clairton Blvd,15236,40.343924,-79.971971,Take Out\
Moe's Southwest Grill,10339 Perry Hwy,15090,40.604093,-80.051224,NO Dollar Menu\
Moe's Southwest Grill #327,5432 Campbells Run Rd,15205,40.447209,-80.157576,NO Dollar Menu\
Molly's Pizza,1525 Potomac Ave,15216,40.396899,-80.035918,Take Out\
Monte Cello's,880 Butler St,15223,40.511559,-79.945112,Take Out\
Monte Cello's Pizza,305 7th Ave,15222,40.443025,-79.996958,Take Out\
Mrs Fields / TCBY,200 Mall Circle Dr,15146,40.429183,-79.795459,Breakfast/Drink/Other\
Mrs Fields Original Cookies #54103,301 South Hills Village / Fc-06,15241,40.342623,-80.05617,Breakfast/Drink/Other\
Mt Lebanon Dairy Queen,1693 McFarland Rd,15216,40.396129,-80.046884,Breakfast/Drink/Other\
Muddy Cup,419 Lincoln Ave,15202,40.494323,-80.053088,Breakfast/Drink/Other\
Nobby's Pizza Castle Shannon,1106 Castle Shannon Blvd,15234,40.36758,-80.017161,Take Out\
Original Milano Pizza,6004 Centre Ave,15206,40.459817,-79.924677,Take Out\
Panera #4347,8800 Covenant Ave,15234,40.56844,-80.021956,NO Dollar Menu\
Panera Bread #3482,942 Freeport Rd,15238,40.489122,-79.892568,NO Dollar Menu\
Panera Bread #3488,1500 Washington Rd,15228,40.356959,-80.051807,NO Dollar Menu\
Panera Bread #3489,400 Penn Ctr East,15235,40.427942,-79.811272,NO Dollar Menu\
Panera Bread #3490,12071 Perry Hwy,15090,40.631991,-80.060798,NO Dollar Menu\
Panera Bread #3492,250 McHolme Dr,15275,40.449412,-80.174333,NO Dollar Menu\
Panera Bread #3493,623 Clairton Blvd,15236,40.333192,-79.946229,NO Dollar Menu\
Panera Bread #3494,210 West Bridge St,15120,40.407152,-79.916616,NO Dollar Menu\
Panera Bread #3495,5243 Library Rd,15102,40.332642,-80.02194,NO Dollar Menu\
Panera Bread #3497,1900 Greentree Rd,15220,40.395518,-80.06731,NO Dollar Menu\
Panera Bread #3499,3401 Blvd of the Allies,15213,40.436278,-79.958018,NO Dollar Menu\
Panera Bread #3501,4172 Wm Penn Hwy,15146,40.438326,-79.765118,NO Dollar Menu\
Panera Bread #3503,3800 Forbes Ave,15213,40.441539,-79.95644,NO Dollar Menu\
Panera Bread #3504,4960 Wm Flynn Hwy,15101,40.602661,-79.946718,NO Dollar Menu\
Panera Bread #3506,7217 McKnight Rd,15237,40.537146,-80.013125,NO Dollar Menu\
Panera Bread #3508,5430 Centre Av,15232,40.455893,-79.937342,NO Dollar Menu\
Panera Bread #4329,117 Pittsburgh Mills Circle,15084,40.571829,-79.802087,NO Dollar Menu\
Panera Bread #4337,295 Settlers Ridge Center Dr,15205,40.440641,-80.149132,NO Dollar Menu\
Panera Bread #4344,132 Bakery Square Blvd,15206,40.456618,-79.917171,NO Dollar Menu\
Panera Bread #4348,1025 Washington Pike,15017,40.367163,-80.110119,NO Dollar Menu\
Panera Bread Bakery #4349,1000 Ross Park Mall Dr,15237,40.538969,-80.007711,NO Dollar Menu\
Papa John's Pizza #344,4815 Centre Ave,15213,40.453628,-79.947026,Take Out\
Papa John's Pizza #440,3336 Babcock Blvd,15237,40.534381,-80.018758,Take Out\
Papa John's Pizza #731,5300 Library Rd,15102,40.329846,-80.022201,Take Out\
Papa John's Pizza #3066,11700 Frankstown Rd,15235,40.466324,-79.825652,Take Out\
Papa John's Pizza #3254,2928 W Liberty Ave,15216,40.3946,-80.035252,Take Out\
Papa John's Pizza #4386,3403 Saw Mill Run Blvd,15227,40.373811,-79.981895,Take Out\
Papa John's Pizza #4456,355 Lincoln Ave,15202,40.4935,-80.052414,Take Out\
Pasquale's,4731 Wm Flynn Hwy,15101,40.571191,-79.952845,Take Out\
Pasquale's Pizzeria,2412 Ferguson Rd,15101,40.554967,-79.972178,Take Out\
Pasquale's Pizzeria,309 Freeport Rd,15215,40.489613,-79.902914,Take Out\
Pasquale's Pizzeria,100 Bettis Rd,15034,40.356534,-79.896075,Take Out\
Pasquale's Pizzeria,6221 Saltsburg Rd,15235,40.484696,-79.815871,Take Out\
Pasquale's Pizzeria,101 Westinghouse Ave,15148,40.393043,-79.809403,Take Out\
Peace Love & Little Donuts,11915 Perry Highway,15090,40.630076,-80.057273,Breakfast/Drink/Other\
Peace Love & Little Donuts of Monroeville,4745 William Penn Hwy,15146,40.431237,-79.729234,Breakfast/Drink/Other\
Penn Station East Coast Sub,4815 Centre Ave,15213,40.453628,-79.947026,Take Out\
Penn Station East Coast Subs,808 Liberty Ave,15222,40.442516,-79.998747,Take Out\
Penn Station East Coast Subs,4203 Wm Penn Hwy,15146,40.439624,-79.76192,Take Out\
Penn Station East Coast Subs #324,1597 Washington Pike,15017,40.382618,-80.095126,Take Out\
Philly Pretzel Factory,1150 Washington Pike,15017,40.368507,-80.102194,Breakfast/Drink/Other\
Philly Pretzel Factory,3968 Wm Penn Hwy,15146,40.437955,-79.773279,Breakfast/Drink/Other\
Pittsburgh Popcorn Co,1000 Ross Park Mall Dr,15237,40.538969,-80.007711,Breakfast/Drink/Other\
Pizza & Gyro Express,801 O'Neil Blvd,15132,40.35117,-79.830364,Take Out\
Pizza Bomonti,601 Lincoln Ave,15202,40.496763,-80.058464,Take Out\
Pizza Hut #023977,550 Butler St,15201,40.500796,-79.943429,Take Out\
Pizza Hut #023980,4873 Wm Flynn Hwy,15101,40.601552,-79.947759,Take Out\
Pizza Hut #024011,1219 Federal St,15212,40.456337,-80.007199,Take Out\
Pizza Hut #024013,2324 Ardmore Blvd,15221,40.415956,-79.848712,Take Out\
Pizza Hut #024015,4001 Main St,15120,40.382202,-79.904624,Take Out\
Pizza Hut #024016,80 Allegheny River Blvd,15147,40.498933,-79.818468,Take Out\
Pizza Hut #024017,2002 E Carson St,15203,40.428382,-79.977401,Take Out\
Pizza Hut #024018,2158 Brownsville Rd,15210,40.391956,-79.987408,Take Out\
Pizza Hut #024021,481 Lincoln Ave,15202,40.49506,-80.055231,Take Out\
Pizza Hut #024022,4710 Baum Blvd,15213,40.453887,-79.949561,Take Out\
Pizza Hut #024025,1984 Greentree Rd,15220,40.394572,-80.067031,Take Out\
Pizza Hut #028061,4960 Library Rd,15102,40.343549,-80.026904,Take Out\
Pizza Hut #028557,3747 Wm Penn Hwy,15146,40.437368,-79.786442,Take Out\
Pizza Joe's,192 Ohio River Blvd,15003,40.576339,-80.221813,Take Out\
Pizza Marsala,2677B Monroeville Blvd,15146,40.435568,-79.782607,Take Out\
Pizza Palermo,45 Foster Ave,15205,40.439536,-80.069355,Take Out\
Pizza Palermo,406 Lysle Blvd,15132,40.351738,-79.862718,Take Out\
Pizza Palermo,109 Penn Ave,15145,40.405681,-79.826547,Take Out\
Pizza Palermo,7343 Saltsburg Rd,15235,40.478135,-79.78589,Take Out\
Pizza Parma,1790 N Highland Rd,15241,40.349029,-80.052176,Take Out\
Pizza Parma #3,823 Penn Ave,15222,40.44389,-79.99859,Take Out\
Pizza Pronto,518 California Ave,15202,40.502209,-80.070648,Take Out\
Pizza Pronto,4611 Centre Ave,15213,40.452187,-79.951648,Take Out\
Pizza Roma,5990 University Blvd Suite#13,15108,40.521267,-80.219777,Take Out\
Pizza Roma,11085 Babcock Blvd,15044,40.661124,-80.004664,Take Out\
Point Park University/Starbucks,7 Wood St,15222,40.437624,-80.002691,Breakfast/Drink/Other\
Popeyes Louisiana Kitchen,1900 Lincoln Hi,15137,40.448908,-80.199001,Dollar Menu\
Popeyes Louisiana Kitchen,2010 Wharton St,15203,40.430319,-79.976687,Dollar Menu\
Popeyes Louisiana Kitchen,3420 Wm Penn Hwy,15235,40.429988,-79.813291,Dollar Menu\
Popeyes Louisiana Kitchen #11352,3616 5th Ave,15213,40.441537,-79.958418,Dollar Menu\
Portofino Pizzaria,28 W Steuben St,15205,40.43825,-80.068238,Take Out\
Portofino's Pizza,231 Main St,15106,40.408832,-80.084934,Take Out\
Qdoba,601 Grant St,15222,40.441093,-79.996009,NO Dollar Menu\
Qdoba #487,808 Liberty Ave,15222,40.442516,-79.998747,NO Dollar Menu\
Qdoba Mexican Grill,1740 Settlers Ridge Center Dr,15205,40.440641,-80.149132,NO Dollar Menu\
Qdoba Mexican Grill,4815 Centre Ave,15213,40.453628,-79.947026,NO Dollar Menu\
Qdoba Mexican Grill,1028 Freeport Rd,15238,40.486758,-79.887166,NO Dollar Menu\
Qdoba Mexican Grill SSW,2777 E Carson St,15203,40.426264,-79.965723,NO Dollar Menu\
Quiznos Subs #8721,300 S Craig St,15213,40.445591,-79.94924,NO Dollar Menu\
R & B's Pizza Place,107 Smithfield St,15222,40.437525,-80.000587,Take Out\
Raya's Pizzeria,401 Main St,15106,40.410451,-80.082644,Take Out\
Rita's Italian Ice,1803 McKees Rocks Rd,15136,40.468834,-80.098007,Breakfast/Drink/Other\
Rita's Italian Ice,229 Curry Hollow Rd,15236,40.337272,-79.97936,Breakfast/Drink/Other\
Rita's Italian Ice,1320 Babcock Blvd,15209,40.496112,-79.976443,Breakfast/Drink/Other\
Rita's Italian Ice,3712 5th Ave,15213,40.441845,-79.957882,Breakfast/Drink/Other\
Rita's Italian Ice,5880 Forbes Ave,15217,40.437789,-79.919818,Breakfast/Drink/Other\
Rita's Italian Ice,1985 Lincoln Way,15131,40.338384,-79.806711,Breakfast/Drink/Other\
Rita's Italian Ice #0183,5029 Library Rd,15102,40.340197,-80.025314,Breakfast/Drink/Other\
Rita's Italian Ice #247,2070 Greentree Rd,15220,40.392289,-80.068857,Breakfast/Drink/Other\
Rita's Italian Ice #369,427 McNeilly Rd,15226,40.383122,-80.014801,Breakfast/Drink/Other\
Rose Tea Cafe,5874.5 Forbes Ave,15217,40.437825,-79.92006,Breakfast/Drink/Other\
Rose Tea Cafe Express,414 Craig St,15213,40.4448,-79.948843,Breakfast/Drink/Other\
Rudy's Submarines,270 Yost Blvd,15221,40.414165,-79.849856,Take Out\
Rudy's Subs,3942 Wm Penn Hwy,15146,40.437621,-79.775846,Take Out\
Rudy's Subs,1794 Golden Mile Hwy,15146,40.44553,-79.713731,Take Out\
Rudys House Of Submarines,1920 Monongahela Ave,15218,40.421316,-79.890056,Take Out\
Salud Juicery,348 Beaver St,15143,40.541276,-80.182014,Breakfast/Drink/Other\
Salud Juicery,733 Copeland St,15232,40.451195,-79.93461,Breakfast/Drink/Other\
Sammy's Pizza,2145 Noblestown Rd,15220,40.430166,-80.053144,Take Out\
Sams Cafe #6677,3621 Wm Penn Hwy,15146,40.436466,-79.799469,Breakfast/Drink/Other\
Sbarro Italian Eatery PA#107,200 Monroeville Mall,15146,40.429183,-79.795459,Take Out\
Scoops on Beverly,311 Beverly Rd,15216,40.388429,-80.04982,Breakfast/Drink/Other\
Scoops On The Boulevard,719 Brookline Blvd,15226,40.394641,-80.020748,Breakfast/Drink/Other\
Shake & Twist,1238 Chartiers Ave,15136,40.465036,-80.072044,Breakfast/Drink/Other\
Sheraton Station Sq / Station Break-Link Cafe,300 W Station Sq Dr,15219,40.434857,-80.006179,Breakfast/Drink/Other\
Sichuan Gourmet,328 Atwood St,15213,40.438899,-79.955203,Take Out\
Sichuan Gourmet,1900 Murray Ave,15217,40.435811,-79.923142,Take Out\
Sincerely Yogurt,511 Beaver St,15143,40.540103,-80.179977,Breakfast/Drink/Other\
Sincerely Yogurt,1025 Washington Pike,15017,40.367163,-80.110119,Breakfast/Drink/Other\
Sincerely Yogurt,4885 McKnight Rd,15237,40.529616,-80.010025,Breakfast/Drink/Other\
Sincerely Yogurt,5301 Grove Rd,15236,40.358661,-80.001652,Breakfast/Drink/Other\
Sincerely Yogurt,4116 Brownsville Rd,15219,40.365996,-79.9819,Breakfast/Drink/Other\
Sincerely Yogurt,2737 E Carson Street,15203,40.426845,-79.96628,Breakfast/Drink/Other\
Sincerely Yogurt,3400 5th Ave,15213,40.439152,-79.962019,Breakfast/Drink/Other\
Sincerely Yogurt,5375 Wm Flynn Hwy,15044,40.631549,-79.952845,Breakfast/Drink/Other\
Sincerely Yogurt,136 Allegheny River Blvd,15147,40.498933,-79.818468,Breakfast/Drink/Other\
Sincerely Yogurt,2740 Stroschein Rd,15146,40.437931,-79.768955,Breakfast/Drink/Other\
Smoothie King #1274,1025 Washington Pike,15017,40.367163,-80.110119,Breakfast/Drink/Other\
Sonic #6036,120 Towne Center Dr,15090,40.632081,-80.056721,Dollar Menu\
Sonic Drive In #5965,1027 Washington Pike,15017,40.365436,-80.109627,Dollar Menu\
Sonic Drive-In,1010 Village Center Dr,15084,40.568387,-79.803019,Dollar Menu\
South Philly Steak & Fries #4813,301 South Hills Village,15241,40.342623,-80.05617,Dollar Menu\
Sree's Foods,701 Smithfield St,15222,40.443039,-79.996923,Take Out\
Sree's Foods,2103 Murray Ave,15217,40.433497,-79.922973,Take Out\
Starbucks,301 South Hills Village,15241,40.342623,-80.05617,Breakfast/Drink/Other\
Starbucks,100 W Bridge St,15120,40.404017,-79.918751,Breakfast/Drink/Other\
Starbucks,926 Freeport Rd,15238,40.489046,-79.89367,Breakfast/Drink/Other\
Starbucks,700 Mall Circle Dr,15146,40.4294,-79.79074,Breakfast/Drink/Other\
Starbucks at CCAC Allegheny Campus,845 Ridge Ave,15212,40.449539,-80.0154,Breakfast/Drink/Other\
Starbucks Coffee, Pgh Int'l Airport / Ac-30,15231,40.495309,-80.235291,Breakfast/Drink/Other\
Starbucks Coffee,1001 Liberty Ave,15222,40.444209,-79.994669,Breakfast/Drink/Other\
Starbucks Coffee,4200 5th Ave,15213,40.444271,-79.953291,Breakfast/Drink/Other\
Starbuck #0788,11354 Perrry Hwy,15090,40.6225877,-80.0533809,Breakfast/Drink/Other\
Starbucks #13355,3145 Banksville Rd,15216,40.399384,-80.043643,Breakfast/Drink/Other\
Starbucks #19816 McKnight,7707 McKnight Rd,15237,40.546539,-80.017898,Breakfast/Drink/Other\
Starbucks #21505,109 Ohio River Blvd,15143,40.559373,-80.165185,Breakfast/Drink/Other\
Starbucks #21587,301 Grant St,15219,40.438175,-79.998854,Breakfast/Drink/Other\
Starbucks Coffee #751,6304 Forbes Ave,15217,40.437731,-79.919159,Breakfast/Drink/Other\
Starbucks Coffee #754,1717 Cochran Rd / Va Manor,15220,40.392634,-80.065436,Breakfast/Drink/Other\
Starbucks Coffee #756,210 6th Ave,15222,40.442631,-80.002145,Breakfast/Drink/Other\
Starbucks Coffee #760,5211 Library Rd,15102,40.333392,-80.023312,Breakfast/Drink/Other\
Starbucks Coffee #762,425 Beaver St,15143,40.541007,-80.180949,Breakfast/Drink/Other\
Starbucks Coffee #774,530 Wm Penn Pl,15219,40.440595,-79.996599,Breakfast/Drink/Other\
Starbucks Coffee #776,4885 McKnight Rd,15237,40.529616,-80.010025,Breakfast/Drink/Other\
Starbucks Coffee #778,730 Copeland St,15232,40.451035,-79.935016,Breakfast/Drink/Other\
Starbucks Coffee #784,7 Market Sq,15222,40.44021,-80.002171,Breakfast/Drink/Other\
Starbucks Coffee #787,3618 Forbes Ave,15213,40.440875,-79.957545,Breakfast/Drink/Other\
Starbucks Coffee #793,1400 E Carson St,15203,40.428649,-79.984036,Breakfast/Drink/Other\
Starbucks Coffee #794,973 Greentree Rd,15220,40.419053,-80.045582,Breakfast/Drink/Other\
Starbucks Coffee #795,4100 Wm Penn Hwy,15146,40.437631,-79.766894,Breakfast/Drink/Other\
Starbucks Coffee #2900,417 S Craig St,15213,40.444714,-79.948573,Breakfast/Drink/Other\
Starbucks Coffee #3467,600 Grant St,15222,40.44129,-79.994574,Breakfast/Drink/Other\
Starbucks Coffee #7284,3460 Wm Penn Hwy,15235,40.429442,-79.810354,Breakfast/Drink/Other\
Starbucks Coffee #7625,5310 Liberty Ave,15224,40.455862,-79.939585,Breakfast/Drink/Other\
Starbucks Coffee #7641,1050 Park Manor Blvd,15205,40.452548,-80.16441,Breakfast/Drink/Other\
Starbucks Coffee #7660,825 Beaver Grade Rd,15108,40.517655,-80.216189,Breakfast/Drink/Other\
Starbucks Coffee #7661,2345 Murray Ave,15217,40.430666,-79.923087,Breakfast/Drink/Other\
Starbucks Coffee #7708,270 West Bridge St,15120,40.407632,-79.917064,Breakfast/Drink/Other\
Starbucks Coffee #7732,100 VIP Dr,15090,40.616651,-80.09284,Breakfast/Drink/Other\
Starbucks Coffee #7733,100 Robinson Center Dr,15205,40.454124,-80.161164,Breakfast/Drink/Other\
Starbucks Coffee #7749,4765 Liberty Ave,15224,40.461181,-79.947531,Breakfast/Drink/Other\
Starbucks Coffee #7776,109 Northtowne Sq 101,15044,40.635845,-79.939774,Breakfast/Drink/Other\
Starbucks Coffee #7776,517 Grandview Crossing,15044,40.639831,-79.939071,Breakfast/Drink/Other\
Starbucks Coffee #7875,1597 Washington Pike,15017,40.382618,-80.095126,Breakfast/Drink/Other\
Starbucks Coffee #7887,202 6th St,15222,40.442536,-80.002302,Breakfast/Drink/Other\
Starbucks Coffee #7903,1500 Washington Rd,15228,40.356959,-80.051807,Breakfast/Drink/Other\
Starbucks Coffee #10052,227 Summit Park Dr,15275,40.447739,-80.178502,Breakfast/Drink/Other\
Starbucks Coffee #10521,5932 Centre Ave,15206,40.459015,-79.927563,Breakfast/Drink/Other\
Starbucks Coffee #11147,2015 Pittsburgh Mills Blvd,15084,40.570265,-79.802009,Breakfast/Drink/Other\
Starbucks Coffee #22032,3007 Washington Pike,15017,40.354433,-80.114749,Breakfast/Drink/Other\
Starbucks Coffee #27117 Amos Hall,4022 5th Ave,15213,40.443605,-79.955655,Breakfast/Drink/Other\
Starbucks Coffee Kiosk #19628,1000 Ross Park Mall Dr,15237,40.538969,-80.007711,Breakfast/Drink/Other\
Steak 'N Shake,1951 Park Manor Blvd,15205,40.452816,-80.165746,NO Dollar Menu\
Steak 'N Shake,410 Clairton Blvd,15236,40.335731,-79.948118,NO Dollar Menu\
Steak 'N Shake,650 East Waterfront Dr,15120,40.413496,-79.904456,NO Dollar Menu\
Steak 'N Shake,2005 Pittsburgh Mills Blvd,15084,40.570097,-79.801221,NO Dollar Menu\
Steel City Creamery,317 Pittsburgh Mills Circle,15084,40.57507,-79.795794,Breakfast/Drink/Other\
Subway,417 7th Ave,15219,40.442587,-79.996124,NO Dollar Menu\
Subway,5301 Grove Rd / Caste Village,15236,40.338077,-79.978961,NO Dollar Menu\
Subway,4613 Centre Ave,15213,40.452206,-79.951589,NO Dollar Menu\
Subway,500 Grandview Cr,15044,40.643043,-79.93936,NO Dollar Menu\
Subway,5438 Centre Ave,15232,40.456262,-79.936721,NO Dollar Menu\
Subway,133 8th Ave,15120,40.405599,-79.913223,NO Dollar Menu\
Subway,1609 Braddock Ave,15218,40.427224,-79.890768,NO Dollar Menu\
Subway,410 Lysle Blvd,15132,40.351319,-79.862567,NO Dollar Menu\
Subway,100 Walmart Dr,15137,40.387982,-79.824659,NO Dollar Menu\
Subway,435 Pittsburgh Mills Circle,15084,40.57507,-79.795794,NO Dollar Menu\
Subway #2936,11978 Perry Hwy,15090,40.632628,-80.058459,NO Dollar Menu\
Subway #3898,6210 Grand Ave,15225,40.513668,-80.136238,NO Dollar Menu\
Subway #4640,4706 Rt 8,15101,40.593878,-79.946977,NO Dollar Menu\
Subway #10251,1708 Mt Royal Blvd,15116,40.525573,-79.96197,NO Dollar Menu\
Subway #10396,4028 Beechwood Blvd,15217,40.427123,-79.937733,NO Dollar Menu\
Subway #21001,526 Penn Ave,15222,40.442372,-80.002693,NO Dollar Menu\
Subway #21414,2771 E Carson St,15203,40.426345,-79.965842,NO Dollar Menu\
Subway #22098,1750 Greensburg Pike,15137,40.387417,-79.821603,NO Dollar Menu\
Subway #24678,454 Home Dr,15275,40.450951,-80.182513,NO Dollar Menu\
Subway #25081,2020 Ardmore Blvd,15221,40.4211426,-79.8532695,NO Dollar Menu\
Subway #25122,1926 Murray Ave,15217,40.435206,-79.92309,NO Dollar Menu\
Subway #25123,5990 University Blvd,15108,40.521267,-80.219777,NO Dollar Menu\
Subway #25126,100 Robinson Center Drive / Sp Fc3 - Robinson Mall,15205,40.44177,-80.087015,NO Dollar Menu\
Subway #25629,1305 Pittsburgh St,15024,40.54139,-79.802043,NO Dollar Menu\
Subway #27602,1701 Lincoln Hwy,15137,40.371962,-79.786944,NO Dollar Menu\
Subway #28038,200 Monroeville Mall,15146,40.429183,-79.795459,NO Dollar Menu\
Subway #28390,4778 Liberty Ave,15224,40.460593,-79.947565,NO Dollar Menu\
Subway #28784,6270 Library Rd,15102,40.292463,-80.031009,NO Dollar Menu\
Subway #29532,124 Grant Ave,15209,40.478491,-79.970104,NO Dollar Menu\
Subway #30056,1343 W Liberty Ave,15226,40.411188,-80.012518,NO Dollar Menu\
Subway #31330,4400 Old Wm Penn Hwy,15146,40.445241,-79.764845,NO Dollar Menu\
Subway #31579,400 Ohio St,15212,40.453439,-80.0015,NO Dollar Menu\
Subway #31930,1160 B Washington Ave,15106,40.397454,-80.085297,NO Dollar Menu\
Subway #32741,3147 Banksville Rd,15237,40.39928,-80.043815,NO Dollar Menu\
Subway #32742,7700 Penn Ave,15221,40.446355,-79.893766,NO Dollar Menu\
Subway #32870,1325 Hoffman Blvd,15122,40.383831,-79.868719,NO Dollar Menu\
Subway #33633,2619 Wexford Bayne Rd,15143,40.614788,-80.098656,NO Dollar Menu\
Subway #34651,4526 Broadway Blvd,15146,40.390084,-79.767156,NO Dollar Menu\
Subway #35112,4145 Wm Penn Hwy,15146,40.439416,-79.765929,NO Dollar Menu\
Subway #35690,101 Station Sq Dr,15219,40.432446,-80.004039,NO Dollar Menu\
Subway #36717,300 Walmart Dr,15044,40.623044,-79.946493,NO Dollar Menu\
Subway #36783,2200 Washington Pike,15106,40.386653,-80.096183,NO Dollar Menu\
Subway #39339,995 Greensburg Pike,15221,40.416596,-79.840047,NO Dollar Menu\
Subway #39841, Pgh Intl Airport / Ne-2,15231,40.495309,-80.235291,NO Dollar Menu\
Subway #40231 (Wal-Mart),5055 Library Rd,15102,40.33883,-80.024575,NO Dollar Menu\
Subway #41022,219 Shiloh St,15211,40.430093,-80.007181,NO Dollar Menu\
Subway #42119,100 Highlands Mall,15065,40.646695,-79.71312,NO Dollar Menu\
Subway #44309,322 Curry Hollow Rd,15236,40.33758,-79.97663,NO Dollar Menu\
Subway #48584, Pgh Intl Airport / Se-15,15231,40.495309,-80.235291,NO Dollar Menu\
Subway #50151,2880 Industrial Bo,15102,40.327841,-80.038594,NO Dollar Menu\
Subway #54217,1035 5th Ave,15219,40.43888,-79.989485,NO Dollar Menu\
Subway #58298,537 Beaver St,15143,40.539505,-80.17923,NO Dollar Menu\
Subway #58836,4721 McKnight Rd,15237,40.517805,-80.005705,NO Dollar Menu\
Subway #59528,4313 Walnut St,15132,40.322136,-79.833971,NO Dollar Menu\
Subway #59964,1212 E Carson Street,15203,40.428581,-79.985814,NO Dollar Menu\
Subway #61053,1846 Centre Ave,15219,40.442641,-79.982151,NO Dollar Menu\
Subway #61470,84 Allegheny River Blvd,15147,40.497234,-79.844178,NO Dollar Menu\
Subway #65130,550 Butler St,15223,40.500796,-79.943429,NO Dollar Menu\
Subway #65416,48 Monongahela Ave,15045,40.33471,-79.890986,NO Dollar Menu\
Subway Salads & Sandwiches,3336 Babcock Blvd,15237,40.53444,-80.018767,NO Dollar Menu\
Subway Salads & Sandwiches,2373 Mountain View Dr,15122,40.345026,-79.947141,NO Dollar Menu\
Subway Salads & Sandwiches,119 22nd Ave,15120,40.398055,-79.901875,NO Dollar Menu\
Subway Salads & Sandwiches #25920,517 McNeilly Rd,15226,40.382945,-80.017415,NO Dollar Menu\
Subway Salads & Sandwiches #44133,1500 5th Ave,15132,40.351343,-79.849457,NO Dollar Menu\
Subway Salads & Sandwiches #56580,264 Mt Nebo Pointe Dr,15237,40.534891,-80.068199,NO Dollar Menu\
Subway Sandwich & Salads,1039 Freeport Rd,15238,40.488339,-79.885519,NO Dollar Menu\
Subway Sandwiches,112 Chartiers Ave,15136,40.465602,-80.055586,NO Dollar Menu\
Subway Sandwiches,7900 McKnight Rd,15237,40.552794,-80.015417,NO Dollar Menu\
Subway Sandwiches & Salads,500 Pine Hollow Rd Kenmawr Plaza,15136,40.469395,-80.114941,NO Dollar Menu\
Subway Sandwiches & Salads,39 Walsh Rd,15205,40.440123,-80.071073,NO Dollar Menu\
Subway Sandwiches & Salads,2351 Noblestown Rd,15205,40.426815,-80.055137,NO Dollar Menu\
Subway Sandwiches & Salads,950 Ridge Ave,15212,40.450089,-80.018163,NO Dollar Menu\
Subway Sandwiches & Salads,3 Market Pl,15222,40.440228,-80.002591,NO Dollar Menu\
Subway Sandwiches & Salads,401 Wood St,15222,40.439578,-80.001289,NO Dollar Menu\
Subway Sandwiches & Salads,703 Liberty Ave,15222,40.442751,-79.99971,NO Dollar Menu\
Subway Sandwiches & Salads,414 Smithfield St,15222,40.439038,-79.999103,NO Dollar Menu\
Subway Sandwiches & Salads,225 Ross St,15219,40.437,-79.997091,NO Dollar Menu\
Subway Sandwiches & Salads,2158 Brownsville Rd,15210,40.391956,-79.987408,NO Dollar Menu\
Subway Sandwiches & Salads,4142 Saw Mill Run Blvd,15227,40.376066,-79.969628,NO Dollar Menu\
Subway Sandwiches & Salads,4017 Butler St,15201,40.469282,-79.961849,NO Dollar Menu\
Subway Sandwiches & Salads,3707 Forbes Ave,15213,40.441327,-79.957546,NO Dollar Menu\
Subway Sandwiches & Salads,418 S Craig St,15213,40.444757,-79.948953,NO Dollar Menu\
Subway Sandwiches & Salads,751 Pittsburgh / McKeesport Blvd,15034,40.355588,-79.898878,NO Dollar Menu\
Subway Sandwiches & Salads,201 Allegheny Ave,15139,40.514196,-79.843961,NO Dollar Menu\
Subway Sandwiches & Salads,11667 Penn Hills Dr,15235,40.464969,-79.8267,NO Dollar Menu\
Subway Sandwiches & Salads,1732 Pacific Ave,15065,40.62324,-79.723789,NO Dollar Menu\
Subway Sandwiches & Salads #2685,4136 Library Rd,15234,40.359115,-80.029173,NO Dollar Menu\
Subway Sandwiches & Salads #2849,308 Cochran Rd,15228,40.380803,-80.05256,NO Dollar Menu\
Subway Sandwiches & Salads #3505,809 West View Park Dr,15229,40.516906,-80.03279,NO Dollar Menu\
Subway Sandwiches & Salads #6338,700 Forbes Ave,15219,40.438202,-79.992285,NO Dollar Menu\
Subway Sandwiches & Salads #15051,150 Market Place Dr,15071,40.441348,-80.239649,NO Dollar Menu\
Subway Sandwiches & Salads #18944,971 Ohio River Blvd,15202,40.497453,-80.060344,NO Dollar Menu\
Subway Sandwiches & Salads #20844,55 Alpha Dr,15238,40.538904,-79.835563,NO Dollar Menu\
Subway Sandwiches & Salads #24670,9805 McKnight Rd,15237,40.584706,-80.039643,NO Dollar Menu\
Subway Sandwiches & Salads #24919,583 Clairton Blvd,15236,40.333226,-79.94624,NO Dollar Menu\
Subway Sandwiches & Salads #26939,930 Presque Isle Dr,15239,40.462408,-79.706499,NO Dollar Menu\
Subway Sandwiches & Salads #29207,1025 Washington Pike,15017,40.367163,-80.110119,NO Dollar Menu\
Subway Sandwiches & Salads #36480,300 Mt Lebanon Blvd,15234,40.368707,-80.034816,NO Dollar Menu\
Subway Sandwiches & Salads #58293,5500 Butler St,15201,40.483434,-79.948921,NO Dollar Menu\
Subway Sandwiches #21685,10 Village Dr,15056,40.557796,-80.204226,NO Dollar Menu\
Subway Sandwiches #27505,3446 William Penn Hwy,15235,40.429165,-79.811071,NO Dollar Menu\
Subway Sandwiches #28039,301 South Hills Village,15241,40.342623,-80.05617,NO Dollar Menu\
Subway Sandwiches #28040,1000 Ross Park Mall Dr,15237,40.538969,-80.007711,NO Dollar Menu\
Subway Sandwiches #30671,7343 Saltsburg Rd,15235,40.478135,-79.78589,NO Dollar Menu\
Subway Sandwiches #37037,930 Penn Ave,15222,40.443878,-79.996862,NO Dollar Menu\
Sushi Fuku,120 Oakland Ave,15213,40.441664,-79.957366,Take Out\
Sushi Fuku #2,417 Craig St,15213,40.454609,-79.954019,Take Out\
Sushic @ Giant Eagle #40,5550 Centre Ave,15232,40.456537,-79.934434,Take Out\
Sushic@ Giant Eagle #43,155 Town Center Dr,15090,40.63217,-80.054312,Take Out\
Taco Bell /Pizza Hut Express #31620,825 Freeport Rd,15215,40.487186,-79.895071,Dollar Menu\
Taco Bell #5594,4032 Wm Penn Hwy,15146,40.438346,-79.767908,Dollar Menu\
Taco Bell #5656,2300 Ardmore Blvd,15221,40.416778,-79.848694,Dollar Menu\
Taco Bell #15608,2802 Jacks Run Rd,15131,40.337668,-79.80702,Dollar Menu\
Taco Bell #026113,2050 Lebanon Church Rd,15122,40.347935,-79.947793,Dollar Menu\
Taco Bell #26114,4801 McKnight Rd,15237,40.522828,-80.006531,Dollar Menu\
Taco Bell #26115,1690 Cochran Rd,15220,40.392881,-80.063026,Dollar Menu\
Taco Bell #26116,2343 Noblestown Rd,15205,40.427237,-80.054173,Dollar Menu\
Taco Bell #26117,1025 Washington Pike,15017,40.367163,-80.110119,Dollar Menu\
Taco Bell #27626,705 Allegheny Ave,15233,40.449793,-80.018714,Dollar Menu\
Taco Bell #31614,1603 Braddock Ave,15218,40.426666,-79.888681,Dollar Menu\
Taco Bell #31615,100 Northtowne Sq,15044,40.63741,-79.939513,Dollar Menu\
Target / Food Avenue Express #1217,600 Chauvet Dr,15275,40.446307,-80.183571,Breakfast/Drink/Other\
Target / Food Avenue Express #1218,9805 McKnight Rd,15237,40.584706,-80.039643,Breakfast/Drink/Other\
Target / Food Avenue Express #1219,4004 Monroeville Blvd,15146,40.433958,-79.772657,Breakfast/Drink/Other\
Target / Food Avenue Express #2077,288 Mt Nebo Pointe Dr,15237,40.535691,-80.068546,Breakfast/Drink/Other\
Target / Food Avenue Express #2385,2661 Freeport Rd,15238,40.538377,-79.836544,Breakfast/Drink/Other\
Target #2201,4801 McKnight Rd,15237,40.522828,-80.006531,Breakfast/Drink/Other\
Target #2262,550 Grandview Crossing Dr,15044,40.641828,-79.941842,Breakfast/Drink/Other\
Target Cafe / Starbucks #1253,360 E Waterfront Dr,15120,40.410403,-79.909935,Breakfast/Drink/Other\
Target Cafe / Starbucks #2787,201 South Hills Village,15241,40.340135,-80.054802,Breakfast/Drink/Other\
Target Cafe #1270,1717 Lebanon Church Rd,15122,40.348058,-79.948788,Breakfast/Drink/Other\
Target Cafe #2757,6231 Penn Ave,15206,40.4609,-79.921311,Breakfast/Drink/Other\
Tenders,121 Oakland Ave,15213,40.441864,-79.957123,Breakfast/Drink/Other\
The Apple Core Cafe / AETNA,730 Holiday Drive / Foster Plaza #8,15220,40.421988,-80.063758,Breakfast/Drink/Other\
The Bagel Factory,420 Craig St,15213,40.454605,-79.953465,Breakfast/Drink/Other\
The Bagel Factory,5825 Ellsworth Ave,15232,40.456778,-79.9302,Breakfast/Drink/Other\
The Bagel Factory,5885 Forbes Ave,15217,40.438278,-79.919953,Breakfast/Drink/Other\
The Coffee Tree Roasters,299 Beverly Rd,15216,40.388732,-80.049634,Breakfast/Drink/Other\
The Coffee Tree Roasters,10 Old Clairton Rd,15236,40.339812,-79.965456,Breakfast/Drink/Other\
The Coffee Tree Roasters,5524 Walnut St,15232,40.451252,-79.932727,Breakfast/Drink/Other\
The Coffee Tree Roasters,5840 Forbes Ave,15217,40.437809,-79.921326,Breakfast/Drink/Other\
The Coffee Tree Roasters,151 Bakery Square Blvd,15206,40.456352,-79.915518,Breakfast/Drink/Other\
The Coffee Tree Roasters,48 Fox Chapel Rd,15238,40.488455,-79.88265,Breakfast/Drink/Other\
The Court St. Cafe at Dicks Sporting Goods,345 Court St,15108,40.507631,-80.265832,Breakfast/Drink/Other\
The Meadows Original Frozen Custard,4329 Northern Pike,15146,40.434571,-79.750509,Breakfast/Drink/Other\
The Pita Pit,2763 E Carson St,15203,40.42648,-79.966039,Take Out\
The Pizza Co,3502 Main St,15120,40.385719,-79.903293,Take Out\
The Pizza Company,4101 Library Rd,15234,40.360769,-80.028372,Take Out\
The Pizza Company,5200 Brownsville Rd,15236,40.343226,-79.985594,Take Out\
The Pizza Company,1711 Clairton Rd,15122,40.328992,-79.932257,Take Out\
The Pizza Company #6,3050 Churchview Ave,15227,40.385574,-79.967678,Take Out\
The Simple Greek,665 Washington Rd,15228,40.381267,-80.043985,Take Out\
Uncle Sam's Gourmet Subs,5808 Forbes Ave,15217,40.437859,-79.922496,Take Out\
Uncle Sam's Sandwich Bar,936 Freeport Rd,15238,40.488622,-79.892179,Take Out\
Uncle Sam's Subs,210 Oakland Ave,15213,40.44119,-79.956794,Take Out\
V3 Pizza,11 5th Ave,15222,40.442313,-80.002978,Take Out\
Villa Pizza,449 Pittsburgh Mills Circle,15084,40.57507,-79.795794,Take Out\
Villa Pizza #4801,100 Robinson Center Drive / 2556 Robinson Mall,15205,40.44177,-80.087015,Take Out\
Vocelli Pizza,935 Beaver Grade Rd,15108,40.511329,-80.212909,Take Out\
Vocelli Pizza,422 Walnut St,15143,40.540521,-80.18209,Take Out\
Vocelli Pizza,3060 Liberty Ave,15216,40.392056,-80.038288,Take Out\
Vocelli Pizza,1019 Mt Royal Blvd,15223,40.517268,-79.95938,Take Out\
Vocelli Pizza,4896 Wm Flynn Hwy,15101,40.571191,-79.952845,Take Out\
Vocelli Pizza,4740 Baum Blvd,15213,40.453938,-79.948843,Take Out\
Vocelli Pizza,4235 Murray Ave,15217,40.422196,-79.928597,Take Out\
Vocelli Pizza,231 Commercial Ave,15215,40.490241,-79.903764,Take Out\
Vocelli Pizza,2011 Waverly St,15218,40.422025,-79.886205,Take Out\
Vocelli Pizza,201 Allegheny Ave,15139,40.514196,-79.843961,Take Out\
Vocelli Pizza,11745 Frankstown Rd,15235,40.467838,-79.825587,Take Out\
Vocelli Pizza / Robinson,5644 Steubenville Pike,15136,40.451757,-80.131548,Take Out\
Vocelli Pizza #1,1687 Washington Rd,15228,40.351893,-80.050278,Take Out\
Vocelli's Pizza #10,617 Brownsville Rd,15210,40.410275,-79.990068,Take Out\
Vocelli Pizza #19,1130 Perry Highway,15237,40.547834,-80.035657,Take Out\
Vocelli Pizza #30,1025 Washington Pike,15017,40.367163,-80.110119,Take Out\
Vocelli Pizza #35,1786 Golden Mile Hwy,15146,40.445275,-79.712946,Take Out\
Vocelli Pizza #74,2101 Greentree Rd,15220,40.390563,-80.072422,Take Out\
Vocelli Pizza #104,691 Clairton Blvd,15236,40.323355,-79.956672,Take Out\
Walid's Hook Fish & Chicken #2,1303 Brownsville Rd,15210,40.40272,-79.989321,NO Dollar Menu\
Walid's Hook Fish & Chicken,1000 Chartiers Ave,15220,40.444188,-80.040594,NO Dollar Menu\
Wendy's #546,1125 Washington Pike,15017,40.368036,-80.104155,Dollar Menu\
Wendy's #576,7317 McKnight Rd,15237,40.538047,-80.011881,Dollar Menu\
Wendy's #577,802 West View Park Dr,15229,40.517681,-80.032149,Dollar Menu\
Wendy's Old Fashioned Hamburger's,1015 Ohio River Blvd,15202,40.497453,-80.060344,Dollar Menu\
Wendy's Old Fashioned Hamburger's,603 Clairton Blvd,15236,40.331016,-79.945193,Dollar Menu\
Wendy's Old Fashioned Hamburgers,9 Quaker Village Shopping Center Dr,15056,40.561532,-80.205346,Dollar Menu\
Wendy's Old Fashioned Hamburgers,6296 Steubenville Pike,15205,40.447453,-80.153468,Dollar Menu\
Wendy's Old Fashioned Hamburgers,1705 Pine Hollow Rd,15136,40.47555,-80.099474,Dollar Menu\
Wendy's Old Fashioned Hamburgers,1660 Cochran Rd,15220,40.392802,-80.062098,Dollar Menu\
Wendy's Old Fashioned Hamburgers,5055 Library Rd,15102,40.33883,-80.024575,Dollar Menu\
Wendy's Old Fashioned Hamburgers,2410 Liberty Ave,15226,40.400265,-80.024151,Dollar Menu\
Wendy's Old Fashioned Hamburgers,725 Allegheny Ave,15233,40.450243,-80.018901,Dollar Menu\
Wendy's Old Fashioned Hamburgers,4031 Clairton Blvd,15227,40.376066,-79.969628,Dollar Menu\
Wendy's Old Fashioned Hamburgers,106 Northtowne Sq,15044,40.63786,-79.939374,Dollar Menu\
Wendy's Old Fashioned Hamburgers,1703 Braddock Ave,15218,40.425415,-79.888002,Dollar Menu\
Wendy's Old Fashioned Hamburgers #502,1830 Broadview Blvd,15065,40.624189,-79.723272,Dollar Menu\
Wendy's Old Fashioned Hamburgers #505,500 Lincoln Hwy,15137,40.450792,-80.199346,Dollar Menu\
Wendy's Old Fashioned Hamburgers #506,2396 Golden Mile Hwy,15239,40.463144,-79.705018,Dollar Menu\
Wendy's Old Fashioned Hamburgers #508,610 William Marks Dr,15120,40.409314,-79.898693,Dollar Menu\
Wendy's Old Fashioned Hamburgers #509,3990 Wm Penn Hwy,15146,40.438098,-79.771839,Dollar Menu\
Wendy's Old Fashioned Hamburgers #510,5076 Wm Penn Hwy,15146,40.427496,-79.705693,Dollar Menu\
Wendy's Old Fashioned Hamburgers #511,2805 Jacks Run Rd,15131,40.337977,-79.808628,Dollar Menu\
Wendy's Old Fashioned Hamburgers #520,4001 Butler St,15201,40.469108,-79.962326,Dollar Menu\
Wendy's Old Fashioned Hamburgers #521,208 Rodi Rd,15235,40.463731,-79.824453,Dollar Menu\
Wendy's Old Fashioned Hamburgers #522,116 Peebles St,15221,40.44617,-79.893195,Dollar Menu\
Wendy's Old Fashioned Hamburgers #526,3410 Wm Penn Hwy,15235,40.43005,-79.814092,Dollar Menu\
Wendy's Old Fashioned Hamburgers #527,5422 Baum Blvd,15224,40.456997,-79.937452,Dollar Menu\
Wendy's Old Fashioned Hamburgers #528,891 Freeport Rd,15238,40.486932,-79.890632,Dollar Menu\
Wendy's Old Fashioned Hamburgers #529,2691 Freeport Rd,15238,40.538093,-79.835423,Dollar Menu\
Wendy's Old-Fashioned Hamburgers #524,4524 Browns Hill Rd,15217,40.416338,-79.925252,Dollar Menu\
Wendy's Old-Fashioned Hamburgers #541,2280 Lebanon Church Rd,15122,40.348406,-79.939763,Dollar Menu\
Wendy's Old Fashioned Hamburgers #574,10810 Perry Hwy,15090,40.6156611,-80.0548015,Dollar Menu\
Wendy's Old Fashioned Hamburgers #2360,8703 University Blvd,15108,40.50602,-80.222562,Dollar Menu\
Wing Stop,1324 Carson St,15203,40.428626,-79.984257,Take Out\
Wing Stop #827,13 Foster Ave,15205,40.441096,-80.069146,Take Out\
Wings Over Pittsburgh,2525 Carson St,15203,40.427812,-79.969116,Take Out\
Ye Allegheny Sandwich Shop,822 Western Ave,15233,40.452466,-80.015119,Take Out}